{
"type": "FeatureCollection",
"crs": { "type": "name", "properties": { "name": "urn:ogc:def:crs:OGC:1.3:CRS84" } },
                                                                                
"features": [
{ "type": "Feature", "properties": { "id": 241777508, "name": "Town Edge Family Restaurant", "amenity": "restaurant", "cuisine": null }, "geometry": { "type": "Point", "coordinates": [ -89.6354892, 42.8066714 ] } },
{ "type": "Feature", "properties": { "id": 241777525, "name": "Flannerys", "amenity": "restaurant", "cuisine": null }, "geometry": { "type": "Point", "coordinates": [ -89.6350506, 42.8186551 ] } },
{ "type": "Feature", "properties": { "id": 241777856, "name": null, "amenity": "pub", "cuisine": null }, "geometry": { "type": "Point", "coordinates": [ -89.6331127, 42.8146622 ] } },
{ "type": "Feature", "properties": { "id": 255340780, "name": "Subway", "amenity": "restaurant", "cuisine": null }, "geometry": { "type": "Point", "coordinates": [ -89.6321668, 42.8078906 ] } },
{ "type": "Feature", "properties": { "id": 256499270, "name": "Ott House", "amenity": "pub", "cuisine": null }, "geometry": { "type": "Point", "coordinates": [ -89.6349562, 42.8160109 ] } },
{ "type": "Feature", "properties": { "id": 256499341, "name": "Tofflers", "amenity": "restaurant", "cuisine": null }, "geometry": { "type": "Point", "coordinates": [ -89.6353675, 42.8156036 ] } },
{ "type": "Feature", "properties": { "id": 256499436, "name": "Deininger's", "amenity": "restaurant", "cuisine": null }, "geometry": { "type": "Point", "coordinates": [ -89.6348525, 42.8152022 ] } },
{ "type": "Feature", "properties": { "id": 256500109, "name": "Sportsmans", "amenity": "pub", "cuisine": null }, "geometry": { "type": "Point", "coordinates": [ -89.633747, 42.8152228 ] } },
{ "type": "Feature", "properties": { "id": 256500148, "name": "Glarner Stube", "amenity": "pub", "cuisine": null }, "geometry": { "type": "Point", "coordinates": [ -89.633747, 42.8150535 ] } },
{ "type": "Feature", "properties": { "id": 259171888, "name": "Whistle Stop icecream shop", "amenity": "restaurant", "cuisine": null }, "geometry": { "type": "Point", "coordinates": [ -89.6327762, 42.8162019 ] } },
{ "type": "Feature", "properties": { "id": 434789237, "name": null, "amenity": "restaurant", "cuisine": "thai" }, "geometry": { "type": "Point", "coordinates": [ -89.4375815, 43.0751883 ] } },
{ "type": "Feature", "properties": { "id": 439962599, "name": "La Brioche", "amenity": "cafe", "cuisine": null }, "geometry": { "type": "Point", "coordinates": [ -89.4384055, 43.0754179 ] } },
{ "type": "Feature", "properties": { "id": 442436323, "name": "Primrose Winery", "amenity": "pub", "cuisine": null }, "geometry": { "type": "Point", "coordinates": [ -89.6337579, 42.8153448 ] } },
{ "type": "Feature", "properties": { "id": 448428215, "name": "Denny's", "amenity": "restaurant", "cuisine": null }, "geometry": { "type": "Point", "coordinates": [ -89.5240715, 43.0906404 ] } },
{ "type": "Feature", "properties": { "id": 450505505, "name": "Frank's Place", "amenity": "cafe", "cuisine": null }, "geometry": { "type": "Point", "coordinates": [ -89.4143536, 43.0778335 ] } },
{ "type": "Feature", "properties": { "id": 452865400, "name": "Glass Nickel Pizza", "amenity": "restaurant", "cuisine": "pizza" }, "geometry": { "type": "Point", "coordinates": [ -89.4667398, 43.0754979 ] } },
{ "type": "Feature", "properties": { "id": 478453963, "name": "Papa Murphy's Pizza", "amenity": "restaurant", "cuisine": null }, "geometry": { "type": "Point", "coordinates": [ -89.5310738, 43.0019975 ] } },
{ "type": "Feature", "properties": { "id": 478453964, "name": "Chang Jiang", "amenity": "restaurant", "cuisine": null }, "geometry": { "type": "Point", "coordinates": [ -89.5308593, 43.0019975 ] } },
{ "type": "Feature", "properties": { "id": 478453966, "name": "Milo's", "amenity": "restaurant", "cuisine": null }, "geometry": { "type": "Point", "coordinates": [ -89.5306104, 43.0019975 ] } },
{ "type": "Feature", "properties": { "id": 478453967, "name": "Draft House Bar & Resterant", "amenity": "pub", "cuisine": null }, "geometry": { "type": "Point", "coordinates": [ -89.5297435, 43.0018531 ] } },
{ "type": "Feature", "properties": { "id": 480618406, "name": "Union Tavern", "amenity": "bar", "cuisine": null }, "geometry": { "type": "Point", "coordinates": [ -89.3020349, 42.8240484 ] } },
{ "type": "Feature", "properties": { "id": 492960346, "name": "EVP Coffee", "amenity": "cafe", "cuisine": "coffee_shop" }, "geometry": { "type": "Point", "coordinates": [ -89.4391742, 43.0605478 ] } },
{ "type": "Feature", "properties": { "id": 492960350, "name": "Village Bar", "amenity": "pub", "cuisine": null }, "geometry": { "type": "Point", "coordinates": [ -89.4389123, 43.0605986 ] } },
{ "type": "Feature", "properties": { "id": 504392302, "name": "Starbuck's", "amenity": "cafe", "cuisine": null }, "geometry": { "type": "Point", "coordinates": [ -89.5255938, 43.0905312 ] } },
{ "type": "Feature", "properties": { "id": 504392310, "name": "Bucatini", "amenity": "restaurant", "cuisine": null }, "geometry": { "type": "Point", "coordinates": [ -89.5267419, 43.0909473 ] } },
{ "type": "Feature", "properties": { "id": 504392321, "name": "TGI Friday's", "amenity": "restaurant", "cuisine": null }, "geometry": { "type": "Point", "coordinates": [ -89.527598, 43.0909555 ] } },
{ "type": "Feature", "properties": { "id": 504392401, "name": "Claddagh Irish Pub", "amenity": "pub", "cuisine": null }, "geometry": { "type": "Point", "coordinates": [ -89.529249, 43.0911406 ] } },
{ "type": "Feature", "properties": { "id": 504392411, "name": "Cheeseburger in Paradise", "amenity": "bar", "cuisine": null }, "geometry": { "type": "Point", "coordinates": [ -89.5292932, 43.0908057 ] } },
{ "type": "Feature", "properties": { "id": 511964432, "name": "Iron Works Cafe", "amenity": "cafe", "cuisine": null }, "geometry": { "type": "Point", "coordinates": [ -89.3436527, 43.0964704 ] } },
{ "type": "Feature", "properties": { "id": 534541615, "name": "World Buffet", "amenity": "restaurant", "cuisine": null }, "geometry": { "type": "Point", "coordinates": [ -89.3521022, 43.0464324 ] } },
{ "type": "Feature", "properties": { "id": 534548994, "name": "Subway", "amenity": "restaurant", "cuisine": null }, "geometry": { "type": "Point", "coordinates": [ -89.3837075, 42.9378739 ] } },
{ "type": "Feature", "properties": { "id": 534548998, "name": "Subtown", "amenity": "restaurant", "cuisine": null }, "geometry": { "type": "Point", "coordinates": [ -89.3748155, 42.9182974 ] } },
{ "type": "Feature", "properties": { "id": 534550864, "name": "Subway", "amenity": "restaurant", "cuisine": null }, "geometry": { "type": "Point", "coordinates": [ -89.5408167, 42.9894632 ] } },
{ "type": "Feature", "properties": { "id": 534550867, "name": "michael's frozen custard", "amenity": "restaurant", "cuisine": null }, "geometry": { "type": "Point", "coordinates": [ -89.53904, 42.989212 ] } },
{ "type": "Feature", "properties": { "id": 534550870, "name": "Cousins Subs", "amenity": "restaurant", "cuisine": null }, "geometry": { "type": "Point", "coordinates": [ -89.5331349, 42.9880882 ] } },
{ "type": "Feature", "properties": { "id": 534550879, "name": "Quiznos", "amenity": "restaurant", "cuisine": null }, "geometry": { "type": "Point", "coordinates": [ -89.4984216, 43.0148736 ] } },
{ "type": "Feature", "properties": { "id": 539880386, "name": "Sugar River Pizza", "amenity": "restaurant", "cuisine": null }, "geometry": { "type": "Point", "coordinates": [ -89.5342211, 42.8751127 ] } },
{ "type": "Feature", "properties": { "id": 558531523, "name": "KFC", "amenity": "restaurant", "cuisine": null }, "geometry": { "type": "Point", "coordinates": [ -89.4544478, 43.0370144 ] } },
{ "type": "Feature", "properties": { "id": 558581585, "name": "Cousins Subs", "amenity": "restaurant", "cuisine": null }, "geometry": { "type": "Point", "coordinates": [ -89.5101248, 43.1053144 ] } },
{ "type": "Feature", "properties": { "id": 558584939, "name": "Ponderosa", "amenity": "restaurant", "cuisine": null }, "geometry": { "type": "Point", "coordinates": [ -89.5020802, 43.0553308 ] } },
{ "type": "Feature", "properties": { "id": 558596121, "name": "Denny's", "amenity": "restaurant", "cuisine": null }, "geometry": { "type": "Point", "coordinates": [ -89.3115936, 43.048567 ] } },
{ "type": "Feature", "properties": { "id": 558602318, "name": "The Farm Tavern", "amenity": "bar", "cuisine": null }, "geometry": { "type": "Point", "coordinates": [ -89.3548488, 43.0321826 ] } },
{ "type": "Feature", "properties": { "id": 558634496, "name": "Little Caesar's pizza", "amenity": "restaurant", "cuisine": null }, "geometry": { "type": "Point", "coordinates": [ -89.5039273, 43.0496662 ] } },
{ "type": "Feature", "properties": { "id": 558636596, "name": "Domino's Pizza", "amenity": "restaurant", "cuisine": null }, "geometry": { "type": "Point", "coordinates": [ -89.5027171, 43.04966 ] } },
{ "type": "Feature", "properties": { "id": 558637254, "name": "Griffs", "amenity": "restaurant", "cuisine": null }, "geometry": { "type": "Point", "coordinates": [ -89.5036955, 43.0395923 ] } },
{ "type": "Feature", "properties": { "id": 558652384, "name": "Dairy Queen", "amenity": "restaurant", "cuisine": null }, "geometry": { "type": "Point", "coordinates": [ -89.4141657, 43.0253212 ] } },
{ "type": "Feature", "properties": { "id": 558652388, "name": "Yes Buffet", "amenity": "restaurant", "cuisine": null }, "geometry": { "type": "Point", "coordinates": [ -89.4148731, 43.0258424 ] } },
{ "type": "Feature", "properties": { "id": 558652392, "name": "KFC", "amenity": "restaurant", "cuisine": null }, "geometry": { "type": "Point", "coordinates": [ -89.4080459, 43.0316834 ] } },
{ "type": "Feature", "properties": { "id": 558652406, "name": "Popeye's", "amenity": "restaurant", "cuisine": null }, "geometry": { "type": "Point", "coordinates": [ -89.4108869, 43.0300207 ] } },
{ "type": "Feature", "properties": { "id": 558655049, "name": "Grand China Buffet", "amenity": "restaurant", "cuisine": null }, "geometry": { "type": "Point", "coordinates": [ -89.4235985, 43.0344878 ] } },
{ "type": "Feature", "properties": { "id": 558656201, "name": "Rocky Rococo", "amenity": "restaurant", "cuisine": null }, "geometry": { "type": "Point", "coordinates": [ -89.41002, 43.0355041 ] } },
{ "type": "Feature", "properties": { "id": 558656242, "name": "Perkins", "amenity": "restaurant", "cuisine": null }, "geometry": { "type": "Point", "coordinates": [ -89.4087071, 43.0355367 ] } },
{ "type": "Feature", "properties": { "id": 558656255, "name": "Pizza Pit", "amenity": "restaurant", "cuisine": null }, "geometry": { "type": "Point", "coordinates": [ -89.4067241, 43.0362758 ] } },
{ "type": "Feature", "properties": { "id": 558656257, "name": "Alt'n Bach's Town Tap", "amenity": "bar", "cuisine": null }, "geometry": { "type": "Point", "coordinates": [ -89.4185076, 43.0368679 ] } },
{ "type": "Feature", "properties": { "id": 558685363, "name": "Borlands", "amenity": "bar", "cuisine": null }, "geometry": { "type": "Point", "coordinates": [ -89.535489, 42.8598204 ] } },
{ "type": "Feature", "properties": { "id": 559478973, "name": "Papa Johns", "amenity": "restaurant", "cuisine": null }, "geometry": { "type": "Point", "coordinates": [ -89.4984131, 43.0147175 ] } },
{ "type": "Feature", "properties": { "id": 559478977, "name": "Pizza Hut", "amenity": "restaurant", "cuisine": "pizza" }, "geometry": { "type": "Point", "coordinates": [ -89.4970662, 43.0160335 ] } },
{ "type": "Feature", "properties": { "id": 559484058, "name": "Einstein Brothers Bagels", "amenity": "restaurant", "cuisine": null }, "geometry": { "type": "Point", "coordinates": [ -89.4537318, 43.0352543 ] } },
{ "type": "Feature", "properties": { "id": 559486171, "name": "Ginos Italian Deli", "amenity": "restaurant", "cuisine": null }, "geometry": { "type": "Point", "coordinates": [ -89.4562492, 43.0351143 ] } },
{ "type": "Feature", "properties": { "id": 559490231, "name": "Denny's", "amenity": "restaurant", "cuisine": null }, "geometry": { "type": "Point", "coordinates": [ -89.5020969, 43.0582152 ] } },
{ "type": "Feature", "properties": { "id": 559494201, "name": "Noodles & Company", "amenity": "restaurant", "cuisine": null }, "geometry": { "type": "Point", "coordinates": [ -89.5048026, 43.0614284 ] } },
{ "type": "Feature", "properties": { "id": 559494715, "name": "KFC", "amenity": "restaurant", "cuisine": null }, "geometry": { "type": "Point", "coordinates": [ -89.5131244, 43.060096 ] } },
{ "type": "Feature", "properties": { "id": 559496394, "name": "Pizza Hut", "amenity": "restaurant", "cuisine": null }, "geometry": { "type": "Point", "coordinates": [ -89.5121802, 43.0609865 ] } },
{ "type": "Feature", "properties": { "id": 559830168, "name": "Pizza Hut", "amenity": "restaurant", "cuisine": null }, "geometry": { "type": "Point", "coordinates": [ -89.4274594, 43.014224 ] } },
{ "type": "Feature", "properties": { "id": 559830393, "name": "Noodles & Company", "amenity": "restaurant", "cuisine": null }, "geometry": { "type": "Point", "coordinates": [ -89.4288756, 43.0160753 ] } },
{ "type": "Feature", "properties": { "id": 566320883, "name": "Great Dane Pub", "amenity": "restaurant", "cuisine": null }, "geometry": { "type": "Point", "coordinates": [ -89.2798975, 43.085314 ] } },
{ "type": "Feature", "properties": { "id": 567255626, "name": "Maria's Pizza", "amenity": "restaurant", "cuisine": null }, "geometry": { "type": "Point", "coordinates": [ -89.3844706, 42.9254735 ] } },
{ "type": "Feature", "properties": { "id": 567255627, "name": "Pizza Pit", "amenity": "restaurant", "cuisine": null }, "geometry": { "type": "Point", "coordinates": [ -89.3839217, 42.9267524 ] } },
{ "type": "Feature", "properties": { "id": 567594256, "name": "Sarku Japan", "amenity": "restaurant", "cuisine": null }, "geometry": { "type": "Point", "coordinates": [ -89.5049367, 43.0582766 ] } },
{ "type": "Feature", "properties": { "id": 567594259, "name": "Katos Cajun", "amenity": "restaurant", "cuisine": null }, "geometry": { "type": "Point", "coordinates": [ -89.5051486, 43.0582785 ] } },
{ "type": "Feature", "properties": { "id": 567594260, "name": "Quiznos", "amenity": "restaurant", "cuisine": null }, "geometry": { "type": "Point", "coordinates": [ -89.5048268, 43.0584451 ] } },
{ "type": "Feature", "properties": { "id": 567670331, "name": "Paoli Pub", "amenity": "bar", "cuisine": null }, "geometry": { "type": "Point", "coordinates": [ -89.5258934, 42.929212 ] } },
{ "type": "Feature", "properties": { "id": 567670332, "name": "Old Duffers", "amenity": "bar", "cuisine": null }, "geometry": { "type": "Point", "coordinates": [ -89.5154049, 42.9502677 ] } },
{ "type": "Feature", "properties": { "id": 567935414, "name": null, "amenity": "cafe", "cuisine": null }, "geometry": { "type": "Point", "coordinates": [ -89.3760248, 43.0847504 ] } },
{ "type": "Feature", "properties": { "id": 567936557, "name": "Weary Traveler", "amenity": "restaurant", "cuisine": null }, "geometry": { "type": "Point", "coordinates": [ -89.3640175, 43.0832715 ] } },
{ "type": "Feature", "properties": { "id": 567936558, "name": "Crystal Corner Bar", "amenity": "bar", "cuisine": null }, "geometry": { "type": "Point", "coordinates": [ -89.3625498, 43.0847196 ] } },
{ "type": "Feature", "properties": { "id": 567937911, "name": "Mother Fools", "amenity": "cafe", "cuisine": null }, "geometry": { "type": "Point", "coordinates": [ -89.3658896, 43.0819904 ] } },
{ "type": "Feature", "properties": { "id": 567937912, "name": "Roman Candle", "amenity": "restaurant", "cuisine": null }, "geometry": { "type": "Point", "coordinates": [ -89.3664073, 43.0820038 ] } },
{ "type": "Feature", "properties": { "id": 568959182, "name": "Sonic Drive-in", "amenity": "restaurant", "cuisine": null }, "geometry": { "type": "Point", "coordinates": [ -89.4926652, 43.0940146 ] } },
{ "type": "Feature", "properties": { "id": 576827447, "name": "The Great Dane Pub & Brewing Company", "amenity": "bar", "cuisine": null }, "geometry": { "type": "Point", "coordinates": [ -89.4235354, 43.0176644 ] } },
{ "type": "Feature", "properties": { "id": 577254012, "name": "Lucy's Cafe", "amenity": "restaurant", "cuisine": null }, "geometry": { "type": "Point", "coordinates": [ -89.5264617, 43.3082148 ] } },
{ "type": "Feature", "properties": { "id": 581614321, "name": "Subway", "amenity": "restaurant", "cuisine": null }, "geometry": { "type": "Point", "coordinates": [ -89.7113713, 43.0087983 ] } },
{ "type": "Feature", "properties": { "id": 587148531, "name": "Stir Fry 88", "amenity": "restaurant", "cuisine": null }, "geometry": { "type": "Point", "coordinates": [ -89.5052667, 43.0584569 ] } },
{ "type": "Feature", "properties": { "id": 587148536, "name": "Rocky Rococo's", "amenity": "restaurant", "cuisine": null }, "geometry": { "type": "Point", "coordinates": [ -89.5052157, 43.0582844 ] } },
{ "type": "Feature", "properties": { "id": 587148542, "name": "Potbelly Sandwich Works", "amenity": "restaurant", "cuisine": null }, "geometry": { "type": "Point", "coordinates": [ -89.5048374, 43.0582923 ] } },
{ "type": "Feature", "properties": { "id": 609996781, "name": "Wall Street", "amenity": "restaurant", "cuisine": null }, "geometry": { "type": "Point", "coordinates": [ -89.794298, 43.176276 ] } },
{ "type": "Feature", "properties": { "id": 634960652, "name": "Outback Steakhouse", "amenity": "restaurant", "cuisine": null }, "geometry": { "type": "Point", "coordinates": [ -89.5239732, 43.0658966 ] } },
{ "type": "Feature", "properties": { "id": 651773464, "name": "Lao Laan-Xang", "amenity": "restaurant", "cuisine": null }, "geometry": { "type": "Point", "coordinates": [ -89.3648763, 43.0831749 ] } },
{ "type": "Feature", "properties": { "id": 652738377, "name": "Toby's Supper Club", "amenity": "restaurant", "cuisine": null }, "geometry": { "type": "Point", "coordinates": [ -89.302764, 43.0440261 ] } },
{ "type": "Feature", "properties": { "id": 658957322, "name": "Subway", "amenity": "restaurant", "cuisine": null }, "geometry": { "type": "Point", "coordinates": [ -89.267313, 43.0444168 ] } },
{ "type": "Feature", "properties": { "id": 661670576, "name": "Panera Bread", "amenity": "restaurant", "cuisine": null }, "geometry": { "type": "Point", "coordinates": [ -89.4191937, 43.0203039 ] } },
{ "type": "Feature", "properties": { "id": 665036725, "name": "Dairy Queen", "amenity": "restaurant", "cuisine": null }, "geometry": { "type": "Point", "coordinates": [ -89.7322579, 43.2714299 ] } },
{ "type": "Feature", "properties": { "id": 669061677, "name": "Hill Top", "amenity": "restaurant", "cuisine": null }, "geometry": { "type": "Point", "coordinates": [ -89.6563224, 43.0840422 ] } },
{ "type": "Feature", "properties": { "id": 671517700, "name": "Rookies", "amenity": "bar", "cuisine": null }, "geometry": { "type": "Point", "coordinates": [ -89.7702075, 43.1655967 ] } },
{ "type": "Feature", "properties": { "id": 679926123, "name": "The Avenue Bar", "amenity": "restaurant", "cuisine": null }, "geometry": { "type": "Point", "coordinates": [ -89.3693608, 43.0855429 ] } },
{ "type": "Feature", "properties": { "id": 700674204, "name": null, "amenity": "bar", "cuisine": null }, "geometry": { "type": "Point", "coordinates": [ -89.6236048, 43.0233234 ] } },
{ "type": "Feature", "properties": { "id": 727109757, "name": "Jimmy John's", "amenity": "restaurant", "cuisine": null }, "geometry": { "type": "Point", "coordinates": [ -89.2119459, 43.1983107 ] } },
{ "type": "Feature", "properties": { "id": 761230792, "name": "Eagle Crest Bar", "amenity": "pub", "cuisine": null }, "geometry": { "type": "Point", "coordinates": [ -89.2873448, 43.1072203 ] } },
{ "type": "Feature", "properties": { "id": 761533796, "name": "Barriques", "amenity": "cafe", "cuisine": null }, "geometry": { "type": "Point", "coordinates": [ -89.4168073, 43.0649884 ] } },
{ "type": "Feature", "properties": { "id": 761533798, "name": "Zuzu Cafe", "amenity": "cafe", "cuisine": null }, "geometry": { "type": "Point", "coordinates": [ -89.4087714, 43.0623076 ] } },
{ "type": "Feature", "properties": { "id": 761533800, "name": "Macha Teahouse + Gallery", "amenity": "cafe", "cuisine": null }, "geometry": { "type": "Point", "coordinates": [ -89.4189852, 43.0639655 ] } },
{ "type": "Feature", "properties": { "id": 762399415, "name": "Bradburys", "amenity": "cafe", "cuisine": null }, "geometry": { "type": "Point", "coordinates": [ -89.383936, 43.0773904 ] } },
{ "type": "Feature", "properties": { "id": 790678751, "name": "Victor Allen's Coffee", "amenity": "cafe", "cuisine": null }, "geometry": { "type": "Point", "coordinates": [ -89.5135106, 43.059617 ] } },
{ "type": "Feature", "properties": { "id": 823964426, "name": "Green Acres", "amenity": "restaurant", "cuisine": null }, "geometry": { "type": "Point", "coordinates": [ -89.7157458, 43.266286 ] } },
{ "type": "Feature", "properties": { "id": 825488044, "name": "Blue Spoon Cafe", "amenity": "restaurant", "cuisine": null }, "geometry": { "type": "Point", "coordinates": [ -89.7211425, 43.2916281 ] } },
{ "type": "Feature", "properties": { "id": 835544967, "name": "Froth House", "amenity": "cafe", "cuisine": null }, "geometry": { "type": "Point", "coordinates": [ -89.4236016, 43.0682829 ] } },
{ "type": "Feature", "properties": { "id": 837354048, "name": "Winchester Resterant", "amenity": "restaurant", "cuisine": null }, "geometry": { "type": "Point", "coordinates": [ -89.0553106, 42.8695026 ] } },
{ "type": "Feature", "properties": { "id": 845149797, "name": "Manna Cafe", "amenity": "cafe", "cuisine": "coffee_shop" }, "geometry": { "type": "Point", "coordinates": [ -89.363036, 43.1077145 ] } },
{ "type": "Feature", "properties": { "id": 848300598, "name": "Rocky Rococo", "amenity": "restaurant", "cuisine": null }, "geometry": { "type": "Point", "coordinates": [ -89.4606964, 43.3322378 ] } },
{ "type": "Feature", "properties": { "id": 848300986, "name": "A&W", "amenity": "restaurant", "cuisine": null }, "geometry": { "type": "Point", "coordinates": [ -89.4604925, 43.3320662 ] } },
{ "type": "Feature", "properties": { "id": 848300987, "name": "Cousin's Subs", "amenity": "restaurant", "cuisine": null }, "geometry": { "type": "Point", "coordinates": [ -89.4609538, 43.3321052 ] } },
{ "type": "Feature", "properties": { "id": 848316826, "name": "Spring Creek Tavern", "amenity": "bar", "cuisine": null }, "geometry": { "type": "Point", "coordinates": [ -89.5263704, 43.3132749 ] } },
{ "type": "Feature", "properties": { "id": 848400375, "name": "Pizza Pit", "amenity": "restaurant", "cuisine": null }, "geometry": { "type": "Point", "coordinates": [ -89.5363948, 43.3221707 ] } },
{ "type": "Feature", "properties": { "id": 848400475, "name": "Subway", "amenity": "restaurant", "cuisine": null }, "geometry": { "type": "Point", "coordinates": [ -89.5373282, 43.3230761 ] } },
{ "type": "Feature", "properties": { "id": 874561129, "name": "Sushi Box", "amenity": "restaurant", "cuisine": "japanese" }, "geometry": { "type": "Point", "coordinates": [ -89.4284017, 43.0719197 ] } },
{ "type": "Feature", "properties": { "id": 874561133, "name": "Lombardino's", "amenity": "restaurant", "cuisine": "italian" }, "geometry": { "type": "Point", "coordinates": [ -89.4288952, 43.0722489 ] } },
{ "type": "Feature", "properties": { "id": 888713056, "name": "Hilltop Deli & Coffee Haus", "amenity": "cafe", "cuisine": null }, "geometry": { "type": "Point", "coordinates": [ -89.6352792, 42.8146966 ] } },
{ "type": "Feature", "properties": { "id": 914118018, "name": "Jade Monkey", "amenity": "bar", "cuisine": null }, "geometry": { "type": "Point", "coordinates": [ -89.3242104, 43.0834892 ] } },
{ "type": "Feature", "properties": { "id": 956773204, "name": "Willaby's", "amenity": "restaurant", "cuisine": null }, "geometry": { "type": "Point", "coordinates": [ -89.3609119, 43.08554 ] } },
{ "type": "Feature", "properties": { "id": 956777673, "name": "Cracker Barrel", "amenity": "restaurant", "cuisine": "american" }, "geometry": { "type": "Point", "coordinates": [ -89.2934469, 43.1296121 ] } },
{ "type": "Feature", "properties": { "id": 956778182, "name": "Uno's Chicago Grill", "amenity": "restaurant", "cuisine": null }, "geometry": { "type": "Point", "coordinates": [ -89.29084, 43.1355098 ] } },
{ "type": "Feature", "properties": { "id": 956781837, "name": "China Buffet", "amenity": "restaurant", "cuisine": null }, "geometry": { "type": "Point", "coordinates": [ -89.3250669, 43.1159191 ] } },
{ "type": "Feature", "properties": { "id": 956788746, "name": "Nitty Gritty", "amenity": "restaurant", "cuisine": null }, "geometry": { "type": "Point", "coordinates": [ -89.3957163, 43.0718888 ] } },
{ "type": "Feature", "properties": { "id": 963641886, "name": "Pizza Hut", "amenity": "restaurant", "cuisine": null }, "geometry": { "type": "Point", "coordinates": [ -89.371929, 42.917567 ] } },
{ "type": "Feature", "properties": { "id": 975976590, "name": "Java Cat", "amenity": "cafe", "cuisine": null }, "geometry": { "type": "Point", "coordinates": [ -89.3244155, 43.0830888 ] } },
{ "type": "Feature", "properties": { "id": 975976942, "name": "Crema Cafe", "amenity": "cafe", "cuisine": null }, "geometry": { "type": "Point", "coordinates": [ -89.3240721, 43.0786144 ] } },
{ "type": "Feature", "properties": { "id": 1004883928, "name": "Copper Top", "amenity": "restaurant", "cuisine": null }, "geometry": { "type": "Point", "coordinates": [ -89.473912, 43.0453855 ] } },
{ "type": "Feature", "properties": { "id": 1006338535, "name": null, "amenity": "restaurant", "cuisine": null }, "geometry": { "type": "Point", "coordinates": [ -89.5135864, 43.057809 ] } },
{ "type": "Feature", "properties": { "id": 1006376227, "name": "Hubbard Ave Diner", "amenity": "restaurant", "cuisine": null }, "geometry": { "type": "Point", "coordinates": [ -89.5106707, 43.0951399 ] } },
{ "type": "Feature", "properties": { "id": 1112503226, "name": "Green Owl Cafe", "amenity": "restaurant", "cuisine": "vegan" }, "geometry": { "type": "Point", "coordinates": [ -89.3555865, 43.0921429 ] } },
{ "type": "Feature", "properties": { "id": 1129946619, "name": "Byrd's Bar and Grill", "amenity": "restaurant", "cuisine": null }, "geometry": { "type": "Point", "coordinates": [ -89.4977858, 43.1065191 ] } },
{ "type": "Feature", "properties": { "id": 1143457654, "name": "Spring Garden Family Restarurant", "amenity": "restaurant", "cuisine": null }, "geometry": { "type": "Point", "coordinates": [ -89.7317147, 43.0099517 ] } },
{ "type": "Feature", "properties": { "id": 1173045529, "name": "State St Brats", "amenity": "bar", "cuisine": null }, "geometry": { "type": "Point", "coordinates": [ -89.3959987, 43.07476 ] } },
{ "type": "Feature", "properties": { "id": 1177756335, "name": "Yen Ching Restaurant", "amenity": "restaurant", "cuisine": null }, "geometry": { "type": "Point", "coordinates": [ -89.4517974, 43.0386891 ] } },
{ "type": "Feature", "properties": { "id": 1182048457, "name": "The Red Shed", "amenity": "bar", "cuisine": null }, "geometry": { "type": "Point", "coordinates": [ -89.3959962, 43.0735613 ] } },
{ "type": "Feature", "properties": { "id": 1182051258, "name": "Wando's Bar & Grill", "amenity": "bar", "cuisine": null }, "geometry": { "type": "Point", "coordinates": [ -89.3960016, 43.0733732 ] } },
{ "type": "Feature", "properties": { "id": 1182056217, "name": "Church Key Bar & Grill", "amenity": "bar", "cuisine": null }, "geometry": { "type": "Point", "coordinates": [ -89.3970623, 43.0733846 ] } },
{ "type": "Feature", "properties": { "id": 1182126595, "name": "Pizza Di Roma", "amenity": "restaurant", "cuisine": null }, "geometry": { "type": "Point", "coordinates": [ -89.3908918, 43.0746973 ] } },
{ "type": "Feature", "properties": { "id": 1182126597, "name": "Parthenon Gyros", "amenity": "restaurant", "cuisine": null }, "geometry": { "type": "Point", "coordinates": [ -89.3909137, 43.0749737 ] } },
{ "type": "Feature", "properties": { "id": 1182212348, "name": "Lava Lounge", "amenity": "bar", "cuisine": null }, "geometry": { "type": "Point", "coordinates": [ -89.3952086, 43.0734539 ] } },
{ "type": "Feature", "properties": { "id": 1182216256, "name": "Amy's Cafe & Bar", "amenity": "bar", "cuisine": null }, "geometry": { "type": "Point", "coordinates": [ -89.3941571, 43.0745154 ] } },
{ "type": "Feature", "properties": { "id": 1182253627, "name": "Domino's Pizza", "amenity": "restaurant", "cuisine": null }, "geometry": { "type": "Point", "coordinates": [ -89.3929665, 43.0737598 ] } },
{ "type": "Feature", "properties": { "id": 1182256364, "name": "A8 China", "amenity": "restaurant", "cuisine": null }, "geometry": { "type": "Point", "coordinates": [ -89.3962454, 43.0733669 ] } },
{ "type": "Feature", "properties": { "id": 1182263550, "name": "Kollege Club", "amenity": "bar", "cuisine": null }, "geometry": { "type": "Point", "coordinates": [ -89.3971824, 43.0756871 ] } },
{ "type": "Feature", "properties": { "id": 1182269921, "name": "Michelangelos Coffee House", "amenity": "cafe", "cuisine": null }, "geometry": { "type": "Point", "coordinates": [ -89.3872762, 43.0748952 ] } },
{ "type": "Feature", "properties": { "id": 1182271388, "name": "Zander's Capital Grill", "amenity": "restaurant", "cuisine": null }, "geometry": { "type": "Point", "coordinates": [ -89.3874639, 43.0748853 ] } },
{ "type": "Feature", "properties": { "id": 1183811220, "name": "Bucksnort Saloon", "amenity": "bar", "cuisine": null }, "geometry": { "type": "Point", "coordinates": [ -89.8378147, 43.2475844 ] } },
{ "type": "Feature", "properties": { "id": 1186772403, "name": "Basset Street Brunch Club", "amenity": "restaurant", "cuisine": "American" }, "geometry": { "type": "Point", "coordinates": [ -89.3935089, 43.0723942 ] } },
{ "type": "Feature", "properties": { "id": 1186776089, "name": "Pizzeria Uno", "amenity": "restaurant", "cuisine": null }, "geometry": { "type": "Point", "coordinates": [ -89.3915798, 43.0750646 ] } },
{ "type": "Feature", "properties": { "id": 1186802912, "name": "Hong Kong Cafe", "amenity": "restaurant", "cuisine": "chinese" }, "geometry": { "type": "Point", "coordinates": [ -89.4042814, 43.0675769 ] } },
{ "type": "Feature", "properties": { "id": 1186808271, "name": "Rocky Rococo Pizza", "amenity": "restaurant", "cuisine": null }, "geometry": { "type": "Point", "coordinates": [ -89.4075482, 43.0674887 ] } },
{ "type": "Feature", "properties": { "id": 1186808284, "name": "Subway", "amenity": "restaurant", "cuisine": null }, "geometry": { "type": "Point", "coordinates": [ -89.4100695, 43.067959 ] } },
{ "type": "Feature", "properties": { "id": 1191237581, "name": "Nostrano", "amenity": "restaurant", "cuisine": null }, "geometry": { "type": "Point", "coordinates": [ -89.3840306, 43.0727459 ] } },
{ "type": "Feature", "properties": { "id": 1191241582, "name": "JJ's Lounge & Restaurant", "amenity": "bar", "cuisine": null }, "geometry": { "type": "Point", "coordinates": [ -89.3845002, 43.073022 ] } },
{ "type": "Feature", "properties": { "id": 1191241583, "name": "Genna's Lounge", "amenity": "bar", "cuisine": null }, "geometry": { "type": "Point", "coordinates": [ -89.3844171, 43.0727008 ] } },
{ "type": "Feature", "properties": { "id": 1191251821, "name": "Barriques Coffee Trader", "amenity": "cafe", "cuisine": null }, "geometry": { "type": "Point", "coordinates": [ -89.3858729, 43.0732274 ] } },
{ "type": "Feature", "properties": { "id": 1191367702, "name": "Brocach Irish Pub", "amenity": "bar", "cuisine": null }, "geometry": { "type": "Point", "coordinates": [ -89.383328, 43.0734355 ] } },
{ "type": "Feature", "properties": { "id": 1191367707, "name": "Starbucks", "amenity": "cafe", "cuisine": null }, "geometry": { "type": "Point", "coordinates": [ -89.3827132, 43.0739561 ] } },
{ "type": "Feature", "properties": { "id": 1192154506, "name": "Cardinal Cafe & Bar", "amenity": "bar", "cuisine": null }, "geometry": { "type": "Point", "coordinates": [ -89.3770892, 43.0757435 ] } },
{ "type": "Feature", "properties": { "id": 1192154521, "name": "Essen Haus", "amenity": "bar", "cuisine": null }, "geometry": { "type": "Point", "coordinates": [ -89.3763609, 43.0762245 ] } },
{ "type": "Feature", "properties": { "id": 1194989256, "name": "Ticino Pizza", "amenity": "restaurant", "cuisine": null }, "geometry": { "type": "Point", "coordinates": [ -89.6340393, 42.8147013 ] } },
{ "type": "Feature", "properties": { "id": 1194990139, "name": "New Glarus Hotel Restaurant", "amenity": "restaurant", "cuisine": null }, "geometry": { "type": "Point", "coordinates": [ -89.6343936, 42.8146226 ] } },
{ "type": "Feature", "properties": { "id": 1194991869, "name": "Fat Cat Coffee Works", "amenity": "cafe", "cuisine": null }, "geometry": { "type": "Point", "coordinates": [ -89.6325643, 42.8139734 ] } },
{ "type": "Feature", "properties": { "id": 1216779792, "name": "Red Robin", "amenity": "restaurant", "cuisine": "burger" }, "geometry": { "type": "Point", "coordinates": [ -89.324025, 43.0466504 ] } },
{ "type": "Feature", "properties": { "id": 1217450200, "name": "Dorf Haus", "amenity": "restaurant", "cuisine": null }, "geometry": { "type": "Point", "coordinates": [ -89.676645, 43.2491403 ] } },
{ "type": "Feature", "properties": { "id": 1217461760, "name": "Roxbury Tavern", "amenity": "bar", "cuisine": null }, "geometry": { "type": "Point", "coordinates": [ -89.6753562, 43.2492587 ] } },
{ "type": "Feature", "properties": { "id": 1218555046, "name": "Pooley's", "amenity": "bar", "cuisine": null }, "geometry": { "type": "Point", "coordinates": [ -89.2850385, 43.1416379 ] } },
{ "type": "Feature", "properties": { "id": 1218564471, "name": "Country Cafe", "amenity": "restaurant", "cuisine": null }, "geometry": { "type": "Point", "coordinates": [ -89.2309464, 43.1869811 ] } },
{ "type": "Feature", "properties": { "id": 1221098925, "name": "Denny's", "amenity": "restaurant", "cuisine": null }, "geometry": { "type": "Point", "coordinates": [ -89.3142034, 43.1232264 ] } },
{ "type": "Feature", "properties": { "id": 1221119720, "name": "Old Country Buffet", "amenity": "restaurant", "cuisine": null }, "geometry": { "type": "Point", "coordinates": [ -89.3148444, 43.122831 ] } },
{ "type": "Feature", "properties": { "id": 1221340793, "name": "Chili's Grill & Bar", "amenity": "restaurant", "cuisine": null }, "geometry": { "type": "Point", "coordinates": [ -89.3087546, 43.1268149 ] } },
{ "type": "Feature", "properties": { "id": 1221341514, "name": "Olive Garden", "amenity": "restaurant", "cuisine": null }, "geometry": { "type": "Point", "coordinates": [ -89.3093876, 43.1263401 ] } },
{ "type": "Feature", "properties": { "id": 1222115614, "name": "Cool Beans Coffee House & Cafe", "amenity": "cafe", "cuisine": null }, "geometry": { "type": "Point", "coordinates": [ -89.3088511, 43.123017 ] } },
{ "type": "Feature", "properties": { "id": 1227243686, "name": "Pizza Hut", "amenity": "restaurant", "cuisine": null }, "geometry": { "type": "Point", "coordinates": [ -89.2380461, 42.9185872 ] } },
{ "type": "Feature", "properties": { "id": 1231227695, "name": "chang jiang", "amenity": "restaurant", "cuisine": null }, "geometry": { "type": "Point", "coordinates": [ -89.4778747, 43.0324438 ] } },
{ "type": "Feature", "properties": { "id": 1234901285, "name": "The Great Dane Pub", "amenity": "pub", "cuisine": null }, "geometry": { "type": "Point", "coordinates": [ -89.4522957, 43.0711333 ] } },
{ "type": "Feature", "properties": { "id": 1234918422, "name": "Flemming's", "amenity": "restaurant", "cuisine": "regional" }, "geometry": { "type": "Point", "coordinates": [ -89.4515339, 43.0746532 ] } },
{ "type": "Feature", "properties": { "id": 1236861253, "name": "The DryBean Saloon", "amenity": "bar", "cuisine": null }, "geometry": { "type": "Point", "coordinates": [ -89.4718474, 43.0211601 ] } },
{ "type": "Feature", "properties": { "id": 1240144441, "name": "Gallup", "amenity": "cafe", "cuisine": null }, "geometry": { "type": "Point", "coordinates": [ -89.4171342, 43.0647319 ] } },
{ "type": "Feature", "properties": { "id": 1240144443, "name": "Pasqual's", "amenity": "cafe", "cuisine": "mexican" }, "geometry": { "type": "Point", "coordinates": [ -89.4170054, 43.0648103 ] } },
{ "type": "Feature", "properties": { "id": 1291940962, "name": "Echo Tap and Grill", "amenity": "pub", "cuisine": null }, "geometry": { "type": "Point", "coordinates": [ -89.3913947, 43.0682225 ] } },
{ "type": "Feature", "properties": { "id": 1291940967, "name": "Main Depot", "amenity": "pub", "cuisine": null }, "geometry": { "type": "Point", "coordinates": [ -89.3921125, 43.0673366 ] } },
{ "type": "Feature", "properties": { "id": 1345484708, "name": "Bluephie's", "amenity": "pub", "cuisine": null }, "geometry": { "type": "Point", "coordinates": [ -89.4287896, 43.0567233 ] } },
{ "type": "Feature", "properties": { "id": 1345870970, "name": "Biaggi's", "amenity": "restaurant", "cuisine": null }, "geometry": { "type": "Point", "coordinates": [ -89.5257334, 43.0731775 ] } },
{ "type": "Feature", "properties": { "id": 1345871043, "name": "Eno Vino", "amenity": "restaurant", "cuisine": null }, "geometry": { "type": "Point", "coordinates": [ -89.5250923, 43.0733225 ] } },
{ "type": "Feature", "properties": { "id": 1345873399, "name": "Hu Hot Mongolian Grill", "amenity": "restaurant", "cuisine": null }, "geometry": { "type": "Point", "coordinates": [ -89.5264066, 43.0731089 ] } },
{ "type": "Feature", "properties": { "id": 1348850872, "name": "High Noon Saloon", "amenity": "pub", "cuisine": null }, "geometry": { "type": "Point", "coordinates": [ -89.3762311, 43.0798541 ] } },
{ "type": "Feature", "properties": { "id": 1348850923, "name": "Brass Ring", "amenity": "pub", "cuisine": null }, "geometry": { "type": "Point", "coordinates": [ -89.3761721, 43.0800167 ] } },
{ "type": "Feature", "properties": { "id": 1349224278, "name": "Starbucks Coffee", "amenity": "cafe", "cuisine": null }, "geometry": { "type": "Point", "coordinates": [ -89.4475406, 43.0749301 ] } },
{ "type": "Feature", "properties": { "id": 1349224281, "name": "Smoky's Supper Club", "amenity": "restaurant", "cuisine": null }, "geometry": { "type": "Point", "coordinates": [ -89.4416344, 43.0750084 ] } },
{ "type": "Feature", "properties": { "id": 1374178110, "name": "Granite City Food & Brewery", "amenity": "pub", "cuisine": null }, "geometry": { "type": "Point", "coordinates": [ -89.5049716, 43.0563952 ] } },
{ "type": "Feature", "properties": { "id": 1478608233, "name": "Subway", "amenity": "restaurant", "cuisine": "sandwich" }, "geometry": { "type": "Point", "coordinates": [ -89.7366837, 43.2714446 ] } },
{ "type": "Feature", "properties": { "id": 1478629473, "name": "Pizza Hut", "amenity": "restaurant", "cuisine": null }, "geometry": { "type": "Point", "coordinates": [ -89.7352434, 43.2717473 ] } },
{ "type": "Feature", "properties": { "id": 1627167791, "name": "New Seoul Korean Restaurant", "amenity": "restaurant", "cuisine": "korean" }, "geometry": { "type": "Point", "coordinates": [ -89.4288124, 43.0719127 ] } },
{ "type": "Feature", "properties": { "id": 1642326613, "name": "The Keystone Grill", "amenity": "restaurant", "cuisine": "american" }, "geometry": { "type": "Point", "coordinates": [ -89.0183535, 43.0041717 ] } },
{ "type": "Feature", "properties": { "id": 1692599119, "name": "Basie's", "amenity": "restaurant", "cuisine": null }, "geometry": { "type": "Point", "coordinates": [ -89.4959305, 43.0553254 ] } },
{ "type": "Feature", "properties": { "id": 1706559870, "name": "Lakeside St Coffee Room", "amenity": "cafe", "cuisine": null }, "geometry": { "type": "Point", "coordinates": [ -89.3890125, 43.0564059 ] } },
{ "type": "Feature", "properties": { "id": 1709850691, "name": "Samba", "amenity": "restaurant", "cuisine": "brazilian" }, "geometry": { "type": "Point", "coordinates": [ -89.3931402, 43.0753805 ] } },
{ "type": "Feature", "properties": { "id": 1709851028, "name": "The Old Fashioned", "amenity": "restaurant", "cuisine": "regional" }, "geometry": { "type": "Point", "coordinates": [ -89.3836141, 43.076244 ] } },
{ "type": "Feature", "properties": { "id": 1709916657, "name": "Panera", "amenity": "cafe", "cuisine": null }, "geometry": { "type": "Point", "coordinates": [ -89.4966481, 43.0604353 ] } },
{ "type": "Feature", "properties": { "id": 1716988973, "name": "Sunroom Cafe", "amenity": "restaurant", "cuisine": "international" }, "geometry": { "type": "Point", "coordinates": [ -89.3962303, 43.0750125 ] } },
{ "type": "Feature", "properties": { "id": 1716991448, "name": "Espresso Royale", "amenity": "cafe", "cuisine": "coffee_shop" }, "geometry": { "type": "Point", "coordinates": [ -89.3965435, 43.0750111 ] } },
{ "type": "Feature", "properties": { "id": 1716994601, "name": "Mediterranean Cafe", "amenity": "restaurant", "cuisine": "greek" }, "geometry": { "type": "Point", "coordinates": [ -89.3964422, 43.074797 ] } },
{ "type": "Feature", "properties": { "id": 1717025926, "name": "fit2eat", "amenity": "restaurant", "cuisine": null }, "geometry": { "type": "Point", "coordinates": [ -89.4385278, 43.0611169 ] } },
{ "type": "Feature", "properties": { "id": 1718635543, "name": "Brocach Irish Pub", "amenity": "pub", "cuisine": null }, "geometry": { "type": "Point", "coordinates": [ -89.4169085, 43.064896 ] } },
{ "type": "Feature", "properties": { "id": 1722996035, "name": "The Legend at the Bergamont", "amenity": "restaurant", "cuisine": "american" }, "geometry": { "type": "Point", "coordinates": [ -89.4111622, 42.91674 ] } },
{ "type": "Feature", "properties": { "id": 1730818515, "name": "Sprecher's", "amenity": "bar", "cuisine": null }, "geometry": { "type": "Point", "coordinates": [ -89.5249596, 43.086514 ] } },
{ "type": "Feature", "properties": { "id": 1743291684, "name": "Lazy Oaf Lounge", "amenity": "bar", "cuisine": null }, "geometry": { "type": "Point", "coordinates": [ -89.3244342, 43.1199361 ] } },
{ "type": "Feature", "properties": { "id": 1743730265, "name": "Tony Frank's Tavern", "amenity": "pub", "cuisine": null }, "geometry": { "type": "Point", "coordinates": [ -89.444135, 43.0354513 ] } },
{ "type": "Feature", "properties": { "id": 1752001452, "name": "Beans N' Cream Coffeehouse", "amenity": "cafe", "cuisine": "coffee_shop" }, "geometry": { "type": "Point", "coordinates": [ -89.2102572, 43.1825578 ] } },
{ "type": "Feature", "properties": { "id": 1769500348, "name": "Mulligan's Bar & Grill", "amenity": "restaurant", "cuisine": "burger" }, "geometry": { "type": "Point", "coordinates": [ -89.4038577, 42.9295662 ] } },
{ "type": "Feature", "properties": { "id": 1769574060, "name": "DeBroux's Diner", "amenity": "restaurant", "cuisine": "american" }, "geometry": { "type": "Point", "coordinates": [ -89.3847661, 42.926222 ] } },
{ "type": "Feature", "properties": { "id": 1769574062, "name": "Senor Peppers", "amenity": "restaurant", "cuisine": null }, "geometry": { "type": "Point", "coordinates": [ -89.3846961, 42.9259234 ] } },
{ "type": "Feature", "properties": { "id": 1771019342, "name": "Gray's Tidehouse", "amenity": "restaurant", "cuisine": null }, "geometry": { "type": "Point", "coordinates": [ -89.5164276, 42.9791287 ] } },
{ "type": "Feature", "properties": { "id": 1773254371, "name": "Victor Allen's Coffee", "amenity": "cafe", "cuisine": "coffee_shop" }, "geometry": { "type": "Point", "coordinates": [ -89.4284321, 43.0573405 ] } },
{ "type": "Feature", "properties": { "id": 1805087670, "name": "Dexter's Pub", "amenity": "pub", "cuisine": null }, "geometry": { "type": "Point", "coordinates": [ -89.3501689, 43.1034352 ] } },
{ "type": "Feature", "properties": { "id": 1855692032, "name": "Nonna Rita's Empanadas", "amenity": "restaurant", "cuisine": null }, "geometry": { "type": "Point", "coordinates": [ -89.3500641, 43.1029317 ] } },
{ "type": "Feature", "properties": { "id": 1855698714, "name": "Jade Mountain Coffee & Tea", "amenity": "cafe", "cuisine": "coffee_shop" }, "geometry": { "type": "Point", "coordinates": [ -89.3497852, 43.1031676 ] } },
{ "type": "Feature", "properties": { "id": 1855751876, "name": "The Malt House", "amenity": "pub", "cuisine": null }, "geometry": { "type": "Point", "coordinates": [ -89.3482416, 43.1005081 ] } },
{ "type": "Feature", "properties": { "id": 1855775377, "name": "Milio's Sandwiches", "amenity": "restaurant", "cuisine": "sandwich" }, "geometry": { "type": "Point", "coordinates": [ -89.357062, 43.0983939 ] } },
{ "type": "Feature", "properties": { "id": 1857342369, "name": "The Ideal Bar", "amenity": "bar", "cuisine": null }, "geometry": { "type": "Point", "coordinates": [ -89.3556769, 43.0921032 ] } },
{ "type": "Feature", "properties": { "id": 1857342945, "name": "Alchemy", "amenity": "restaurant", "cuisine": "regional" }, "geometry": { "type": "Point", "coordinates": [ -89.3553229, 43.0923618 ] } },
{ "type": "Feature", "properties": { "id": 1857351688, "name": "Tip Top Tavern", "amenity": "bar", "cuisine": null }, "geometry": { "type": "Point", "coordinates": [ -89.3510689, 43.1069746 ] } },
{ "type": "Feature", "properties": { "id": 1857356144, "name": "Ella's Deli and Ice Cream Parlor", "amenity": "restaurant", "cuisine": "american" }, "geometry": { "type": "Point", "coordinates": [ -89.3445941, 43.1035085 ] } },
{ "type": "Feature", "properties": { "id": 1857367997, "name": "The People's Bakery", "amenity": "restaurant", "cuisine": null }, "geometry": { "type": "Point", "coordinates": [ -89.3455972, 43.1030032 ] } },
{ "type": "Feature", "properties": { "id": 1858880921, "name": "4 & 20 Bakery and Cafe", "amenity": "cafe", "cuisine": "coffee_shop" }, "geometry": { "type": "Point", "coordinates": [ -89.3572209, 43.0984978 ] } },
{ "type": "Feature", "properties": { "id": 1858956478, "name": "Slices Bar and Grill", "amenity": "pub", "cuisine": null }, "geometry": { "type": "Point", "coordinates": [ -89.3581383, 43.1045806 ] } },
{ "type": "Feature", "properties": { "id": 1924182055, "name": "AJ Bombers Madison", "amenity": "restaurant", "cuisine": "burger" }, "geometry": { "type": "Point", "coordinates": [ -89.3908205, 43.0752316 ] } },
{ "type": "Feature", "properties": { "id": 1959418343, "name": "JB's Italian Grille", "amenity": "restaurant", "cuisine": "italian" }, "geometry": { "type": "Point", "coordinates": [ -89.2320458, 43.1863264 ] } },
{ "type": "Feature", "properties": { "id": 1963718961, "name": "Gates & Brovi", "amenity": "restaurant", "cuisine": null }, "geometry": { "type": "Point", "coordinates": [ -89.4355911, 43.0528871 ] } },
{ "type": "Feature", "properties": { "id": 1975868048, "name": "Jacs Dining & Taphouse", "amenity": "restaurant", "cuisine": null }, "geometry": { "type": "Point", "coordinates": [ -89.4281458, 43.0575188 ] } },
{ "type": "Feature", "properties": { "id": 2143530216, "name": null, "amenity": "cafe", "cuisine": null }, "geometry": { "type": "Point", "coordinates": [ -89.360132, 43.1288781 ] } },
{ "type": "Feature", "properties": { "id": 2143577376, "name": "Benvenuto's Italian Grill", "amenity": "restaurant", "cuisine": "italian" }, "geometry": { "type": "Point", "coordinates": [ -89.3604324, 43.1289251 ] } },
{ "type": "Feature", "properties": { "id": 2143580948, "name": "INFERNO nightclub", "amenity": "bar", "cuisine": null }, "geometry": { "type": "Point", "coordinates": [ -89.3630073, 43.1071693 ] } },
{ "type": "Feature", "properties": { "id": 2143605555, "name": "Wiggie's Bar & Grill", "amenity": "pub", "cuisine": null }, "geometry": { "type": "Point", "coordinates": [ -89.3594453, 43.1138268 ] } },
{ "type": "Feature", "properties": { "id": 2143658578, "name": "New Orleans Takeout", "amenity": "restaurant", "cuisine": "regional" }, "geometry": { "type": "Point", "coordinates": [ -89.364225, 43.0982195 ] } },
{ "type": "Feature", "properties": { "id": 2143714074, "name": null, "amenity": "restaurant", "cuisine": null }, "geometry": { "type": "Point", "coordinates": [ -89.3252847, 43.1739159 ] } }
]
}
